0 COSMOS 2251 DEB
1 33931U 93036EL  13283.44717897  .00005233  00000-0  10553-2 0  1287
2 33931 074.0329 132.2363 0275281 246.8359 183.5482 14.40450884244018
0 COSMOS 2251 DEB
1 33931U 93036EL  13285.52336603  .00004432  00000-0  89494-3 0  1292
2 33931 074.0327 128.3902 0275258 242.5125 149.8980 14.40465578244316
0 COSMOS 2251 DEB
1 33931U 93036EL  13287.82208818  .00007494  00000-0  15072-2 0  1306
2 33931 074.0320 124.1318 0275101 237.6929 190.4143 14.40484865244647
0 COSMOS 2251 DEB
1 33931U 93036EL  13289.84307670  .00008858  00000-0  17794-2 0  1315
2 33931 074.0314 120.3874 0274986 233.4761 230.8425 14.40510231244934
0 COSMOS 2251 DEB
1 33931U 93036EL  13291.85339821  .00008467  00000-0  17010-2 0  1320
2 33931 074.0315 116.6628 0274832 229.2759 216.1415 14.40536717245226
0 COSMOS 2251 DEB
1 33931U 93036EL  13293.95171135  .00009853  00000-0  19774-2 0  1335
2 33931 074.0320 112.7751 0274703 224.8888 297.9748 14.40565796245525
0 COSMOS 2251 DEB
1 33931U 93036EL  13295.95770824  .00011342  00000-0  22741-2 0  1342
2 33931 074.0325 109.0584 0274523 220.7079 261.2634 14.40599429245810
